CCSDS_OMM_VERS = 2.0
CREATION_DATE  = 
ORIGINATOR     = 

OBJECT_NAME    = ATLAS CENTAUR R/B
OBJECT_ID      = 1972-065B
CENTER_NAME    = EARTH
REF_FRAME      = TEME
TIME_SYSTEM    = UTC
MEAN_ELEMENT_THEORY = SGP/SGP4

EPOCH          = 2026-02-09T05:56:00.887136
MEAN_MOTION    = 14.77603119
ECCENTRICITY   = .00331969
INCLINATION    = 35.0012
RA_OF_ASC_NODE = 112.4238
ARG_OF_PERICENTER = 131.4469
MEAN_ANOMALY   = 228.9090

EPHEMERIS_TYPE = 0
CLASSIFICATION_TYPE = U
NORAD_CAT_ID   = 6155
ELEMENT_SET_NO = 999
REV_AT_EPOCH   = 83705
BSTAR          = .21821004E-3
MEAN_MOTION_DOT = .1576E-4
MEAN_MOTION_DDOT = 0

CCSDS_OMM_VERS = 2.0
CREATION_DATE  = 
ORIGINATOR     = 

OBJECT_NAME    = SL-8 R/B
OBJECT_ID      = 1975-112B
CENTER_NAME    = EARTH
REF_FRAME      = TEME
TIME_SYSTEM    = UTC
MEAN_ELEMENT_THEORY = SGP/SGP4

EPOCH          = 2026-02-09T06:17:02.740992
MEAN_MOTION    = 14.38189421
ECCENTRICITY   = .00153826
INCLINATION    = 74.0591
RA_OF_ASC_NODE = 71.2100
ARG_OF_PERICENTER = 174.4915
MEAN_ANOMALY   = 185.6412

EPHEMERIS_TYPE = 0
CLASSIFICATION_TYPE = U
NORAD_CAT_ID   = 8459
ELEMENT_SET_NO = 999
REV_AT_EPOCH   = 62778
BSTAR          = .78803695E-4
MEAN_MOTION_DOT = .213E-5
MEAN_MOTION_DDOT = 0

CCSDS_OMM_VERS = 2.0
CREATION_DATE  = 
ORIGINATOR     = 

OBJECT_NAME    = SL-3 R/B
OBJECT_ID      = 1977-057B
CENTER_NAME    = EARTH
REF_FRAME      = TEME
TIME_SYSTEM    = UTC
MEAN_ELEMENT_THEORY = SGP/SGP4

EPOCH          = 2026-02-09T05:20:32.618400
MEAN_MOTION    = 15.44663547
ECCENTRICITY   = .00080007
INCLINATION    = 97.5735
RA_OF_ASC_NODE = 210.9162
ARG_OF_PERICENTER = 33.7558
MEAN_ANOMALY   = 326.4198

EPHEMERIS_TYPE = 0
CLASSIFICATION_TYPE = U
NORAD_CAT_ID   = 10114
ELEMENT_SET_NO = 999
REV_AT_EPOCH   = 66393
BSTAR          = .29884053E-3
MEAN_MOTION_DOT = .13859E-3
MEAN_MOTION_DDOT = 0

CCSDS_OMM_VERS = 2.0
CREATION_DATE  = 
ORIGINATOR     = 

OBJECT_NAME    = SEASAT 1
OBJECT_ID      = 1978-064A
CENTER_NAME    = EARTH
REF_FRAME      = TEME
TIME_SYSTEM    = UTC
MEAN_ELEMENT_THEORY = SGP/SGP4

EPOCH          = 2026-02-08T23:55:34.809024
MEAN_MOTION    = 14.46136722
ECCENTRICITY   = .00016077
INCLINATION    = 108.0162
RA_OF_ASC_NODE = 65.2841
ARG_OF_PERICENTER = 291.6448
MEAN_ANOMALY   = 68.4526

EPHEMERIS_TYPE = 0
CLASSIFICATION_TYPE = U
NORAD_CAT_ID   = 10967
ELEMENT_SET_NO = 999
REV_AT_EPOCH   = 50236
BSTAR          = .13023817E-3
MEAN_MOTION_DOT = .328E-5
MEAN_MOTION_DDOT = 0

CCSDS_OMM_VERS = 2.0
CREATION_DATE  = 
ORIGINATOR     = 

OBJECT_NAME    = SL-14 R/B
OBJECT_ID      = 1979-011B
CENTER_NAME    = EARTH
REF_FRAME      = TEME
TIME_SYSTEM    = UTC
MEAN_ELEMENT_THEORY = SGP/SGP4

EPOCH          = 2026-02-09T06:38:18.424896
MEAN_MOTION    = 14.91873299
ECCENTRICITY   = .00168727
INCLINATION    = 82.5252
RA_OF_ASC_NODE = 123.5305
ARG_OF_PERICENTER = 148.0085
MEAN_ANOMALY   = 212.2163

EPHEMERIS_TYPE = 0
CLASSIFICATION_TYPE = U
NORAD_CAT_ID   = 11267
ELEMENT_SET_NO = 999
REV_AT_EPOCH   = 52454
BSTAR          = .74047815E-4
MEAN_MOTION_DOT = .775E-5
MEAN_MOTION_DDOT = 0

CCSDS_OMM_VERS = 2.0
CREATION_DATE  = 
ORIGINATOR     = 

OBJECT_NAME    = SL-8 R/B
OBJECT_ID      = 1979-089B
CENTER_NAME    = EARTH
REF_FRAME      = TEME
TIME_SYSTEM    = UTC
MEAN_ELEMENT_THEORY = SGP/SGP4

EPOCH          = 2026-02-08T19:44:21.239520
MEAN_MOTION    = 14.42332485
ECCENTRICITY   = .00165787
INCLINATION    = 74.0697
RA_OF_ASC_NODE = 144.4782
ARG_OF_PERICENTER = 320.7394
MEAN_ANOMALY   = 39.2559

EPHEMERIS_TYPE = 0
CLASSIFICATION_TYPE = U
NORAD_CAT_ID   = 11574
ELEMENT_SET_NO = 999
REV_AT_EPOCH   = 43194
BSTAR          = .1068383E-3
MEAN_MOTION_DOT = .327E-5
MEAN_MOTION_DDOT = 0

CCSDS_OMM_VERS = 2.0
CREATION_DATE  = 
ORIGINATOR     = 

OBJECT_NAME    = SL-14 R/B
OBJECT_ID      = 1980-005B
CENTER_NAME    = EARTH
REF_FRAME      = TEME
TIME_SYSTEM    = UTC
MEAN_ELEMENT_THEORY = SGP/SGP4

EPOCH          = 2026-02-09T06:30:10.985472
MEAN_MOTION    = 14.90892686
ECCENTRICITY   = .00141291
INCLINATION    = 82.5175
RA_OF_ASC_NODE = 334.1851
ARG_OF_PERICENTER = 257.3846
MEAN_ANOMALY   = 102.5793

EPHEMERIS_TYPE = 0
CLASSIFICATION_TYPE = U
NORAD_CAT_ID   = 11672
ELEMENT_SET_NO = 999
REV_AT_EPOCH   = 47225
BSTAR          = .85245724E-4
MEAN_MOTION_DOT = .866E-5
MEAN_MOTION_DDOT = 0

CCSDS_OMM_VERS = 2.0
CREATION_DATE  = 
ORIGINATOR     = 

OBJECT_NAME    = SL-8 R/B
OBJECT_ID      = 1981-003B
CENTER_NAME    = EARTH
REF_FRAME      = TEME
TIME_SYSTEM    = UTC
MEAN_ELEMENT_THEORY = SGP/SGP4

EPOCH          = 2026-02-09T05:57:26.551008
MEAN_MOTION    = 15.09943655
ECCENTRICITY   = .02632148
INCLINATION    = 82.9390
RA_OF_ASC_NODE = 316.3003
ARG_OF_PERICENTER = 277.9687
MEAN_ANOMALY   = 79.1751

EPHEMERIS_TYPE = 0
CLASSIFICATION_TYPE = U
NORAD_CAT_ID   = 12139
ELEMENT_SET_NO = 999
REV_AT_EPOCH   = 31038
BSTAR          = .51805079E-3
MEAN_MOTION_DOT = .19549E-3
MEAN_MOTION_DDOT = 0

CCSDS_OMM_VERS = 2.0
CREATION_DATE  = 
ORIGINATOR     = 

OBJECT_NAME    = SL-3 R/B
OBJECT_ID      = 1981-046B
CENTER_NAME    = EARTH
REF_FRAME      = TEME
TIME_SYSTEM    = UTC
MEAN_ELEMENT_THEORY = SGP/SGP4

EPOCH          = 2026-02-09T05:23:20.280192
MEAN_MOTION    = 15.41194222
ECCENTRICITY   = .00207167
INCLINATION    = 81.2340
RA_OF_ASC_NODE = 323.8969
ARG_OF_PERICENTER = 115.4209
MEAN_ANOMALY   = 244.9181

EPHEMERIS_TYPE = 0
CLASSIFICATION_TYPE = U
NORAD_CAT_ID   = 12465
ELEMENT_SET_NO = 999
REV_AT_EPOCH   = 43404
BSTAR          = .33247386E-3
MEAN_MOTION_DOT = .13939E-3
MEAN_MOTION_DDOT = 0

CCSDS_OMM_VERS = 2.0
CREATION_DATE  = 
ORIGINATOR     = 

OBJECT_NAME    = SL-3 R/B
OBJECT_ID      = 1981-103B
CENTER_NAME    = EARTH
REF_FRAME      = TEME
TIME_SYSTEM    = UTC
MEAN_ELEMENT_THEORY = SGP/SGP4

EPOCH          = 2026-02-09T05:23:16.736928
MEAN_MOTION    = 15.21030436
ECCENTRICITY   = .00137081
INCLINATION    = 81.1565
RA_OF_ASC_NODE = 246.8210
ARG_OF_PERICENTER = 24.9288
MEAN_ANOMALY   = 335.2602

EPHEMERIS_TYPE = 0
CLASSIFICATION_TYPE = U
NORAD_CAT_ID   = 12904
ELEMENT_SET_NO = 999
REV_AT_EPOCH   = 96890
BSTAR          = .25001086E-3
MEAN_MOTION_DOT = .5586E-4
MEAN_MOTION_DDOT = 0

CCSDS_OMM_VERS = 2.0
CREATION_DATE  = 
ORIGINATOR     = 

OBJECT_NAME    = SL-3 R/B
OBJECT_ID      = 1982-013B
CENTER_NAME    = EARTH
REF_FRAME      = TEME
TIME_SYSTEM    = UTC
MEAN_ELEMENT_THEORY = SGP/SGP4

EPOCH          = 2026-02-09T05:52:31.532160
MEAN_MOTION    = 15.21696976
ECCENTRICITY   = .0021686
INCLINATION    = 81.1742
RA_OF_ASC_NODE = 194.0958
ARG_OF_PERICENTER = 276.1720
MEAN_ANOMALY   = 83.7041

EPHEMERIS_TYPE = 0
CLASSIFICATION_TYPE = U
NORAD_CAT_ID   = 13068
ELEMENT_SET_NO = 999
REV_AT_EPOCH   = 40002
BSTAR          = .26396864E-3
MEAN_MOTION_DOT = .6035E-4
MEAN_MOTION_DDOT = 0

CCSDS_OMM_VERS = 2.0
CREATION_DATE  = 
ORIGINATOR     = 

OBJECT_NAME    = SL-3 R/B
OBJECT_ID      = 1982-039B
CENTER_NAME    = EARTH
REF_FRAME      = TEME
TIME_SYSTEM    = UTC
MEAN_ELEMENT_THEORY = SGP/SGP4

EPOCH          = 2026-02-09T05:29:35.050560
MEAN_MOTION    = 15.09922279
ECCENTRICITY   = .00300827
INCLINATION    = 81.1612
RA_OF_ASC_NODE = 248.7671
ARG_OF_PERICENTER = 57.5399
MEAN_ANOMALY   = 302.8728

EPHEMERIS_TYPE = 0
CLASSIFICATION_TYPE = U
NORAD_CAT_ID   = 13154
ELEMENT_SET_NO = 999
REV_AT_EPOCH   = 37734
BSTAR          = .15601766E-3
MEAN_MOTION_DOT = .2579E-4
MEAN_MOTION_DDOT = 0

