ATLAS CENTAUR R/B       
1 06155U 72065B   26040.24723249  .00001576  00000+0  21821-3 0  9997
2 06155  35.0012 112.4238 0033196 131.4469 228.9090 14.77603119837053
SL-8 R/B                
1 08459U 75112B   26040.26183728  .00000213  00000+0  78804-4 0  9997
2 08459  74.0591  71.2100 0015382 174.4915 185.6412 14.38189421627783
SL-3 R/B                
1 10114U 77057B   26040.22259975  .00013859  00000+0  29884-3 0  9995
2 10114  97.5735 210.9162 0008000  33.7558 326.4198 15.44663547663930
SEASAT 1                
1 10967U 78064A   26039.99693066  .00000328  00000+0  13024-3 0  9991
2 10967 108.0162  65.2841 0001607 291.6448  68.4526 14.46136722502360
SL-14 R/B               
1 11267U 79011B   26040.27660214  .00000775  00000+0  74048-4 0  9990
2 11267  82.5252 123.5305 0016872 148.0085 212.2163 14.91873299524542
SL-8 R/B                
1 11574U 79089B   26039.82246805  .00000327  00000+0  10684-3 0  9999
2 11574  74.0697 144.4782 0016578 320.7394  39.2559 14.42332485431948
SL-14 R/B               
1 11672U 80005B   26040.27096048  .00000866  00000+0  85246-4 0  9996
2 11672  82.5175 334.1851 0014129 257.3846 102.5793 14.90892686472254
SL-8 R/B                
1 12139U 81003B   26040.24822397  .00019549  00000+0  51805-3 0  9996
2 12139  82.9390 316.3003 0263214 277.9687  79.1751 15.09943655310381
SL-3 R/B                
1 12465U 81046B   26040.22454028  .00013939  00000+0  33247-3 0  9992
2 12465  81.2340 323.8969 0020716 115.4209 244.9181 15.41194222434041
SL-3 R/B                
1 12904U 81103B   26040.22449927  .00005586  00000+0  25001-3 0  9994
2 12904  81.1565 246.8210 0013708  24.9288 335.2602 15.21030436968907
SL-3 R/B                
1 13068U 82013B   26040.24480940  .00006035  00000+0  26397-3 0  9998
2 13068  81.1742 194.0958 0021686 276.1720  83.7041 15.21696976400028
SL-3 R/B                
1 13154U 82039B   26040.22887790  .00002579  00000+0  15602-3 0  9990
2 13154  81.1612 248.7671 0030082  57.5399 302.8728 15.09922279377341
